FENGYUN 1C DEB          
1 31696U 99025CDE 17344.46916652  .00000488  00000-0  41699-3 0  9990
2 31696  97.8223  68.3062 0156271 214.0529 145.0527 13.85364336215899
